HORYU-4                 
1 41340U 16012D   21062.47756542  .00000846  00000-0  56707-4 0  9990
2 41340  31.0050 121.9469 0013723 200.5853 159.4231 15.01765346276844
E-ST@R-II               
1 41459U 16025D   21062.56779255  .00002376  00000-0  11954-3 0  9995
2 41459  98.1239 192.6082 0162317  59.8069 301.9150 15.07550152266466
AAUSAT 4                
1 41460U 16025E   21062.33970166  .00003220  00000-0  15402-3 0  9997
2 41460  98.1231 195.7316 0150058  45.9939 315.3504 15.10363401266695
BEESAT-4                
1 41619U 16040W   21062.11506428  .00002817  00000-0  11560-3 0  9994
2 41619  97.2844 121.1389 0010397 356.8196   3.2974 15.24993889248805
CANX-7                  
1 41788U 16059F   21062.28673887  .00014761  00000-0  17916-2 0  9994
2 41788  98.2534 163.6108 0031897 185.0501 175.1095 14.83291930238117
RAVAN                   
1 41849U 16067B   21061.59229266  .00000752  00000-0  67389-4 0  9998
2 41849  97.9481 182.2057 0009022 106.4726 253.7488 14.98886341235289
CELTEE 1                
1 41850U 16067C   21062.30301234 -.00000030  00000-0  26573-5 0  9997
2 41850  97.9413 179.8369 0009823 104.2614 255.9699 14.97368487235233
OPTICUBE 04             
1 41851U 16067D   21062.28243344  .00000372  00000-0  37554-4 0  9990
2 41851  97.9409 179.2801 0010464 105.6838 254.5539 14.97056781235206
AEROCUBE 8D             
1 41852U 16067E   21061.55977591 -.00000087  00000-0 -22341-5 0  9992
2 41852  97.9407 178.4043 0010856 108.5442 251.6959 14.97121190235078
AEROCUBE 8C             
1 41853U 16067F   21062.39942583  .00001112  00000-0  10162-3 0  9993
2 41853  97.9400 179.1351 0011617 108.6993 251.5490 14.97085965235191
PROMETHEUS 2-1          
1 41854U 16067G   21061.57036683  .00000318  00000-0  32476-4 0  9998
2 41854  97.9408 178.8070 0011193 109.5530 250.6901 14.97515284235098
PROMETHEUS 2-3          
1 41855U 16067H   21061.56891473  .00000283  00000-0  29511-4 0  9991
2 41855  97.9412 178.8518 0011393 109.6847 250.5605 14.97531312235095
INS-1B                  
1 41954U 17008G   21061.90986024  .00002677  00000-0  10768-3 0  9994
2 41954  97.3206 127.3191 0010558 106.7351 253.5047 15.25708508224766
BGUSAT                  
1 41999U 17008BD  21061.85507977  .00005106  00000-0  18311-3 0  9995
2 41999  97.3356 133.0303 0009304 111.5099 248.7134 15.29115807224413
DIDO-2                  
1 42000U 17008BE  21062.14353149  .00001739  00000-0  72254-4 0  9997
2 42000  97.3215 127.9075 0009761 121.9353 238.2835 15.25089660224183
PEASSS                  
1 42015U 17008BV  21061.58413205  .00002162  00000-0  85677-4 0  9994
2 42015  97.3244 129.5364 0007709 122.6681 237.5302 15.26453645224711
AL-FARABI 1             
1 42016U 17008BW  21062.49400894  .00003516  00000-0  13315-3 0  9999
2 42016  97.3285 131.9615 0007556 119.3874 240.8121 15.27547650225055
NAYIF-1 (EO-88)         
1 42017U 17008BX  21061.87570899  .00003217  00000-0  12189-3 0  9990
2 42017  97.3279 131.3623 0007583 120.4635 239.7354 15.27592107224983
UCLSAT                  
1 42765U 17036A   21061.80646870  .00002283  00000-0  95855-4 0  9991
2 42765  97.2651 114.6823 0010828 185.6100 174.5018 15.24394695205923
LITUANICASAT-2          
1 42768U 17036D   21061.84702353  .00004357  00000-0  17431-3 0  9994
2 42768  97.2721 115.2137 0014312 176.3960 183.7385 15.25510849205215
AALTO-1                 
1 42775U 17036L   21062.08172897  .00001484  00000-0  67080-4 0  9997
2 42775  97.2630 111.9801 0013510 182.5271 177.5900 15.22388277205013
URSA MAIOR              
1 42776U 17036M   21061.77306733  .00001453  00000-0  65266-4 0  9991
2 42776  97.2644 112.0889 0013304 182.9873 177.1286 15.22624439204981
COMPASS 2               
1 42777U 17036N   21061.84914388  .00003372  00000-0  13741-3 0  9993
2 42777  97.2705 115.4845 0012016 176.7189 183.4130 15.25072174205164
DIAMOND RED             
1 42783U 17036U   21061.92967330  .00001716  00000-0  74622-4 0  9990
2 42783  97.2657 113.7793 0011449 189.1876 170.9154 15.23527451205090
PEGASUS                 
1 42784U 17036V   21062.41433535  .00002453  00000-0  10396-3 0  9997
2 42784  97.2658 114.8493 0011417 185.4749 174.6366 15.24011889205207
DIAMOND GREEN           
1 42785U 17036W   21062.12578743  .00001892  00000-0  81969-4 0  9998
2 42785  97.2660 114.0126 0011369 189.0937 171.0096 15.23532605205115
DIAMOND BLUE            
1 42786U 17036X   21061.40229402  .00001731  00000-0  75255-4 0  9997
2 42786  97.2661 113.3057 0011139 191.8778 168.2199 15.23526952205009
NUDTSAT                 
1 42787U 17036Y   21061.95754533  .00003384  00000-0  13532-3 0  9991
2 42787  97.2703 116.4766 0010509 179.8433 180.2810 15.25722737205096
SUCHAI                  
1 42788U 17036Z   21061.80919930  .00002498  00000-0  10366-3 0  9997
2 42788  97.2668 115.1186 0010956 184.6783 175.4354 15.24710608205235
SKCUBE                  
1 42789U 17036AA  21061.88683422  .00002523  00000-0  10537-3 0  9999
2 42789  97.2661 114.9546 0010848 184.9173 175.1960 15.24486687205150
VZLUSAT-1               
1 42790U 17036AB  21061.95010472  .00003487  00000-0  13943-3 0  9992
2 42790  97.2692 116.4594 0010424 180.3276 179.7957 15.25699751205245
ROBUSTA-1B              
1 42792U 17036AD  21061.54363510  .00002363  00000-0  98236-4 0  9994
2 42792  97.2665 114.9604 0010407 185.8271 174.2848 15.24706830205131
CICERO 6                
1 42793U 17036AE  21062.12211343  .00001609  00000-0  69695-4 0  9995
2 42793  97.2641 114.5402 0009721 187.3229 172.7868 15.23755511205241
D-SAT                   
1 42794U 17036AF  21061.75681622  .00000483  00000-0  47057-4 0  9992
2 42794  97.4713  87.2685 0124778 221.9470 137.2141 14.91467265201152
CORVUS BC2              
1 42846U 17042X   21062.08541965  .00000274  00000-0  31981-4 0  9996
2 42846  97.4894 299.4452 0010734 128.4260 231.7925 14.92238157197974
CORVUS BC1              
1 42847U 17042Y   21062.39873679  .00000500  00000-0  54007-4 0  9997
2 42847  97.4896 299.9611 0010431 126.4972 233.7210 14.92340127198028
MIRATA                  
1 43015U 17073C   21061.61030427  .00002035  00000-0  16164-3 0  9995
2 43015  97.7109 329.9835 0249488 286.1173  71.2707 14.80382847177408
MAKERSAT 0              
1 43016U 17073D   21062.27077572  .00001523  00000-0  12295-3 0  9993
2 43016  97.7147 330.7177 0252925 285.7429  71.6022 14.79743830177460
DELLINGR (RBLE)         
1 43021U 98067NJ  21062.26698328  .00087521  00000-0  33478-3 0  9996
2 43021  51.6308  25.9330 0001531  58.2694 301.8459 15.86721551187693
AEROCUBE 7B (OCSD B)    
1 43042U 17071F   21061.79588887  .00008892  00000-0  18345-3 0  9990
2 43042  51.6359 236.4792 0003261 270.4458  89.6155 15.46667183182315
AEROCUBE 7C (OCSD C)    
1 43043U 17071G   21061.80753001  .00008859  00000-0  18364-3 0  9999
2 43043  51.6361 236.5665 0003630 262.7807  97.2892 15.46534935182288
CHEFSAT                 
1 43044U 17071H   21062.10644827  .00026988  00000-0  39713-3 0  9993
2 43044  51.6351 208.1992 0003145 292.3377  67.7280 15.55236567182696
ASGARDIA 1              
1 43049U 17071N   21061.80371125  .00008633  00000-0  17956-3 0  9994
2 43049  51.6370 235.9020 0001376 298.6108  61.4741 15.46471195182294
ISARA                   
1 43050U 17071P   21062.12596709  .00022022  00000-0  35066-3 0  9999
2 43050  51.6333 213.3874 0001242 303.8055  56.2817 15.53189025182612
PROPCUBE 2 (FAUNA)      
1 43052U 17071R   21062.47159870  .00012106  00000-0  24203-3 0  9996
2 43052  51.6357 229.8705 0001318 296.7044  63.3808 15.47210091182426
CORVUS BC3              
1 43118U 18004H   21061.92608347  .00001549  00000-0  66961-4 0  9990
2 43118  97.4141 135.7362 0009112 216.8440 143.2172 15.23946953174357
MICROMAS-2A             
1 43131U 18004W   21062.48999578  .00004742  00000-0  18365-3 0  9998
2 43131  97.4199 139.1003 0007928 207.2932 152.7891 15.26630081174592
SPACEBEE-4              
1 43139U 18004AE  21061.86974300  .00006056  00000-0  22083-3 0  9995
2 43139  97.4255 140.4200 0007302 207.6212 152.4641 15.28514815174608
SPACEBEE-3              
1 43140U 18004AF  21062.15031582  .00008417  00000-0  29277-3 0  9991
2 43140  97.4279 141.8932 0007042 202.3043 157.7892 15.29940462174718
SPACEBEE-2              
1 43141U 18004AG  21061.21595515  .00007820  00000-0  26833-3 0  9991
2 43141  97.4298 141.4170 0006926 204.0714 156.0204 15.30411023174597
SPACEBEE-1              
1 43142U 18004AH  21062.48119914  .00010923  00000-0  36665-3 0  9999
2 43142  97.4302 143.1402 0007002 198.4680 161.6308 15.31022282174802
CICERO 7                
1 43143U 18004AJ  21062.16431542  .00003759  00000-0  14655-3 0  9993
2 43143  97.4178 138.8788 0005981 216.6769 143.4060 15.26556779174560
GOMX-4B                 
1 43196U 18015E   21062.09518305  .00000827  00000-0  36231-4 0  9996
2 43196  97.4669 195.2945 0016749 274.6918  85.2407 15.24758415171305
GOMX-4A                 
1 43197U 18015F   21062.46743863  .00001473  00000-0  61592-4 0  9993
2 43197  97.4662 195.8512 0017038 274.5521 157.7937 15.25116836171383
TEMPEST-D               
1 43547U 98067NV  21062.48815975  .00138651  00000-0  79783-3 0  9992
2 43547  51.6344  75.7204 0003307 351.8946   8.2001 15.77775863150139
AEROCUBE 12A            
1 43556U 18046C   21061.90603199  .00002413  00000-0  91150-4 0  9999
2 43556  51.6408 302.7224 0008425 137.3551 222.8085 15.31084808146953
AEROCUBE 12B            
1 43557U 18046D   21061.89738774  .00002195  00000-0  85243-4 0  9999
2 43557  51.6406 304.1401 0008576 136.8287 223.3367 15.30591474146884
SURFSAT                 
1 43614U 18070B   21061.70145512  .00005189  00000-0  12514-3 0  9998
2 43614  93.0226 261.6382 0016823  63.0338 297.2633 15.41102943138221
CP7 (DAVE)              
1 43615U 18070C   21061.82988235  .00005427  00000-0  13194-3 0  9999
2 43615  93.0229 261.6607 0017006  62.3730 297.9249 15.40854173138236
